[
    {
        "Altitude(m)": 553508.559743525,
        "Argument of Periapsis(deg)": 0.026491964442854003,
        "Eccentricity": 0.0,
        "Inclination(deg)": 53.0,
        "Latitude(deg)": 14.130420788476876,
        "Longitude(deg)": 140.94108410255154,
        "Mean Anomaly(deg)": 162.18467147031038,
        "RAAN(deg)": 74.96057347411208,
        "Satellite Name": "Starlink Shell 1 337",
        "Satellite Number": 337,
        "Semi-Major Axis(m)": 6931778.249405717,
        "Time(s)": 760
    },
    {
        "Altitude(m)": 553498.1363648803,
        "Argument of Periapsis(deg)": 0.02684054292236524,
        "Eccentricity": 0.0,
        "Inclination(deg)": 53.0,
        "Latitude(deg)": 13.635309761714712,
        "Longitude(deg)": 141.29943639757127,
        "Mean Anomaly(deg)": 162.81150267386704,
        "RAAN(deg)": 74.9600547040346,
        "Satellite Name": "Starlink Shell 1 337",
        "Satellite Number": 337,
        "Semi-Major Axis(m)": 6931778.249405717,
        "Time(s)": 770
    },
    {
        "Altitude(m)": 553490.2363412993,
        "Argument of Periapsis(deg)": 0.027189121401876473,
        "Eccentricity": 0.0,
        "Inclination(deg)": 53.0,
        "Latitude(deg)": 13.139543458224983,
        "Longitude(deg)": 141.65612416334403,
        "Mean Anomaly(deg)": 163.4383338774238,
        "RAAN(deg)": 74.95953593395711,
        "Satellite Name": "Starlink Shell 1 337",
        "Satellite Number": 337,
        "Semi-Major Axis(m)": 6931778.249405717,
        "Time(s)": 780
    },
    {
        "Altitude(m)": 553484.8861835658,
        "Argument of Periapsis(deg)": 0.02753769988138771,
        "Eccentricity": 0.0,
        "Inclination(deg)": 53.0,
        "Latitude(deg)": 12.64314928402661,
        "Longitude(deg)": 142.01121472812184,
        "Mean Anomaly(deg)": 164.0651650809805,
        "RAAN(deg)": 74.95901716387966,
        "Satellite Name": "Starlink Shell 1 337",
        "Satellite Number": 337,
        "Semi-Major Axis(m)": 6931778.249405717,
        "Time(s)": 790
    },
    {
        "Altitude(m)": 553482.111242337,
        "Argument of Periapsis(deg)": 0.02788627836089895,
        "Eccentricity": 0.0,
        "Inclination(deg)": 53.0,
        "Latitude(deg)": 12.146154300189282,
        "Longitude(deg)": 142.3647742295955,
        "Mean Anomaly(deg)": 164.69199628453723,
        "RAAN(deg)": 74.95849839380217,
        "Satellite Name": "Starlink Shell 1 337",
        "Satellite Number": 337,
        "Semi-Major Axis(m)": 6931778.249405717,
        "Time(s)": 800
    },
    {
        "Altitude(m)": 553481.9356928535,
        "Argument of Periapsis(deg)": 0.02823485684041019,
        "Eccentricity": 0.0,
        "Inclination(deg)": 53.0,
        "Latitude(deg)": 11.648585238393283,
        "Longitude(deg)": 142.71686814612002,
        "Mean Anomaly(deg)": 165.31882748809392,
        "RAAN(deg)": 74.9579796237247,
        "Satellite Name": "Starlink Shell 1 337",
        "Satellite Number": 337,
        "Semi-Major Axis(m)": 6931778.249405717,
        "Time(s)": 810
    },
    {
        "Altitude(m)": 553484.3825201689,
        "Argument of Periapsis(deg)": 0.028583435319921423,
        "Eccentricity": 0.0,
        "Inclination(deg)": 53.0,
        "Latitude(deg)": 11.150468516188907,
        "Longitude(deg)": 143.06756182789033,
        "Mean Anomaly(deg)": 165.94565869165064,
        "RAAN(deg)": 74.95746085364723,
        "Satellite Name": "Starlink Shell 1 337",
        "Satellite Number": 337,
        "Semi-Major Axis(m)": 6931778.249405717,
        "Time(s)": 820
    },
    {
        "Altitude(m)": 553489.4735050153,
        "Argument of Periapsis(deg)": 0.028932013799432665,
        "Eccentricity": 0.0,
        "Inclination(deg)": 53.0,
        "Latitude(deg)": 10.651830251970967,
        "Longitude(deg)": 143.41691951518243,
        "Mean Anomaly(deg)": 166.57248989520738,
        "RAAN(deg)": 74.95694208356976,
        "Satellite Name": "Starlink Shell 1 337",
        "Satellite Number": 337,
        "Semi-Major Axis(m)": 6931778.249405717,
        "Time(s)": 830
    },
    {
        "Altitude(m)": 553497.2292102331,
        "Argument of Periapsis(deg)": 0.029280592278943897,
        "Eccentricity": 0.0,
        "Inclination(deg)": 53.0,
        "Latitude(deg)": 10.152696279675062,
        "Longitude(deg)": 143.7650048693998,
        "Mean Anomaly(deg)": 167.1993210987641,
        "RAAN(deg)": 74.95642331349228,
        "Satellite Name": "Starlink Shell 1 337",
        "Satellite Number": 337,
        "Semi-Major Axis(m)": 6931778.249405717,
        "Time(s)": 840
    },
    {
        "Altitude(m)": 553507.6689677847,
        "Argument of Periapsis(deg)": 0.029629170758455132,
        "Eccentricity": 0.0,
        "Inclination(deg)": 53.0,
        "Latitude(deg)": 9.65309216321234,
        "Longitude(deg)": 144.11188150404055,
        "Mean Anomaly(deg)": 167.82615230232076,
        "RAAN(deg)": 74.95590454341482,
        "Satellite Name": "Starlink Shell 1 337",
        "Satellite Number": 337,
        "Semi-Major Axis(m)": 6931778.249405717,
        "Time(s)": 850
    },
    {
        "Altitude(m)": 553520.8108664022,
        "Argument of Periapsis(deg)": 0.02997774923796637,
        "Eccentricity": 0.0,
        "Inclination(deg)": 53.0,
        "Latitude(deg)": 9.153043210655504,
        "Longitude(deg)": 144.45761183461119,
        "Mean Anomaly(deg)": 168.4529835058775,
        "RAAN(deg)": 74.95538577333734,
        "Satellite Name": "Starlink Shell 1 337",
        "Satellite Number": 337,
        "Semi-Major Axis(m)": 6931778.249405717,
        "Time(s)": 860
    },
    {
        "Altitude(m)": 553536.6717398326,
        "Argument of Periapsis(deg)": 0.030326327717477602,
        "Eccentricity": 0.0,
        "Inclination(deg)": 53.0,
        "Latitude(deg)": 8.65257448818389,
        "Longitude(deg)": 144.80225844990795,
        "Mean Anomaly(deg)": 169.0798147094342,
        "RAAN(deg)": 74.95486700325986,
        "Satellite Name": "Starlink Shell 1 337",
        "Satellite Number": 337,
        "Semi-Major Axis(m)": 6931778.249405717,
        "Time(s)": 870
    },
    {
        "Altitude(m)": 553555.2671556949,
        "Argument of Periapsis(deg)": 0.030674906196988847,
        "Eccentricity": 0.0,
        "Inclination(deg)": 53.0,
        "Latitude(deg)": 8.151710833806263,
        "Longitude(deg)": 145.14588296175006,
        "Mean Anomaly(deg)": 169.70664591299092,
        "RAAN(deg)": 74.9543482331824,
        "Satellite Name": "Starlink Shell 1 337",
        "Satellite Number": 337,
        "Semi-Major Axis(m)": 6931778.249405717,
        "Time(s)": 880
    },
    {
        "Altitude(m)": 553576.6114049691,
        "Argument of Periapsis(deg)": 0.031023484676500086,
        "Eccentricity": 0.0,
        "Inclination(deg)": 53.0,
        "Latitude(deg)": 7.650476870868091,
        "Longitude(deg)": 145.4885465355904,
        "Mean Anomaly(deg)": 170.3334771165477,
        "RAAN(deg)": 74.95382946310492,
        "Satellite Name": "Starlink Shell 1 337",
        "Satellite Number": 337,
        "Semi-Major Axis(m)": 6931778.249405717,
        "Time(s)": 890
    },
    {
        "Altitude(m)": 553600.7174921277,
        "Argument of Periapsis(deg)": 0.03137206315601132,
        "Eccentricity": 0.0,
        "Inclination(deg)": 53.0,
        "Latitude(deg)": 7.148897021357764,
        "Longitude(deg)": 145.8303104210316,
        "Mean Anomaly(deg)": 170.96030832010433,
        "RAAN(deg)": 74.95331069302745,
        "Satellite Name": "Starlink Shell 1 337",
        "Satellite Number": 337,
        "Semi-Major Axis(m)": 6931778.249405717,
        "Time(s)": 900
    },
    {
        "Altitude(m)": 553627.5971258744,
        "Argument of Periapsis(deg)": 0.03172064163552255,
        "Eccentricity": 0.0,
        "Inclination(deg)": 53.0,
        "Latitude(deg)": 6.646995519024416,
        "Longitude(deg)": 146.1712349693752,
        "Mean Anomaly(deg)": 171.5871395236611,
        "RAAN(deg)": 74.95279192294998,
        "Satellite Name": "Starlink Shell 1 337",
        "Satellite Number": 337,
        "Semi-Major Axis(m)": 6931778.249405717,
        "Time(s)": 910
    },
    {
        "Altitude(m)": 553657.2607105572,
        "Argument of Periapsis(deg)": 0.0320692201150338,
        "Eccentricity": 0.0,
        "Inclination(deg)": 53.0,
        "Latitude(deg)": 6.144796422318817,
        "Longitude(deg)": 146.51138016394978,
        "Mean Anomaly(deg)": 172.2139707272178,
        "RAAN(deg)": 74.95227315287251,
        "Satellite Name": "Starlink Shell 1 337",
        "Satellite Number": 337,
        "Semi-Major Axis(m)": 6931778.249405717,
        "Time(s)": 920
    },
    {
        "Altitude(m)": 553689.7173382209,
        "Argument of Periapsis(deg)": 0.032417798594545036,
        "Eccentricity": 0.0,
        "Inclination(deg)": 53.0,
        "Latitude(deg)": 5.642323627166845,
        "Longitude(deg)": 146.85080615034977,
        "Mean Anomaly(deg)": 172.84080193077452,
        "RAAN(deg)": 74.95175438279503,
        "Satellite Name": "Starlink Shell 1 337",
        "Satellite Number": 337,
        "Semi-Major Axis(m)": 6931778.249405717,
        "Time(s)": 930
    },
    {
        "Altitude(m)": 553724.9747812757,
        "Argument of Periapsis(deg)": 0.03276637707405627,
        "Eccentricity": 0.0,
        "Inclination(deg)": 53.0,
        "Latitude(deg)": 5.139600879592611,
        "Longitude(deg)": 147.18957225371176,
        "Mean Anomaly(deg)": 173.4676331343313,
        "RAAN(deg)": 74.95123561271757,
        "Satellite Name": "Starlink Shell 1 337",
        "Satellite Number": 337,
        "Semi-Major Axis(m)": 6931778.249405717,
        "Time(s)": 940
    }
]